NORAD_CAT_ID,OBJECT_NAME,OBJECT_TYPE,EPOCH,MEAN_MOTION,ECCENTRICITY,INCLINATION,RA_OF_ASC_NODE,ARG_OF_PERICENTER,MEAN_ANOMALY,BSTAR,MEAN_MOTION_DOT,MEAN_MOTION_DDOT,TLE_LINE0,TLE_LINE1,TLE_LINE2,SEMIMAJOR_AXIS,PERIOD,APOGEE,PERIGEE,DECAYED
55399.0,STARLINK-5276,PAYLOAD,2023-10-11 13:35:55,14.98325063,0.0002977,69.9988,123.4763,271.8012,88.2806,3.9531e-05,3.79e-06,0.0,0 STARLINK-5276,1 55399U 23014J   23284.56662028  .00000379  00000-0  39531-4 0  9999,2 55399  69.9988 123.4763 0002977 271.8012  88.2806 14.98325063 40225,6950.208,96.107,574.142,570.004,0.0
55399.0,STARLINK-5276,PAYLOAD,2023-10-11 18:24:20,14.98325507,0.0002981,69.9989,122.9713,271.7345,88.3473,4.1347e-05,4e-06,0.0,0 STARLINK-5276,1 55399U 23014J   23284.76690043  .00000400  00000-0  41347-4 0  9992,2 55399  69.9989 122.9713 0002981 271.7345  88.3473 14.98325507 39310,6950.207,96.107,574.144,570.0,0.0
55399.0,STARLINK-5276,PAYLOAD,2023-10-12 13:37:56,14.98333111,0.0002973,69.9992,120.9507,270.629,89.4529,2.7903e-05,2.4e-06,0.0,0 STARLINK-5276,1 55399U 23014J   23285.56801596  .00000240  00000-0  27903-4 0  9992,2 55399  69.9992 120.9507 0002973 270.6290  89.4529 14.98333111 40373,6950.183,96.107,574.115,569.982,0.0
55399.0,STARLINK-5276,PAYLOAD,2023-10-12 20:02:28,14.98334889,0.0002961,69.9992,120.2774,270.2923,89.7896,2.4782e-05,2.03e-06,0.0,0 STARLINK-5276,1 55399U 23014J   23285.83505424  .00000203  00000-0  24782-4 0  9994,2 55399  69.9992 120.2774 0002961 270.2923  89.7896 14.98334889 39470,6950.178,96.107,574.101,569.985,0.0
55399.0,STARLINK-5276,PAYLOAD,2023-10-12 21:38:36,14.98334285,0.0002979,69.9992,120.1092,270.4796,89.6021,1.8044e-05,1.22e-06,0.0,0 STARLINK-5276,1 55399U 23014J   23285.90181463  .00000122  00000-0  18044-4 0  9999,2 55399  69.9992 120.1092 0002979 270.4796  89.6021 14.98334285 40427,6950.18,96.107,574.115,569.974,0.0
55399.0,STARLINK-5276,PAYLOAD,2023-10-13 13:39:57,14.98330517,0.0003001,69.9991,118.426,270.1733,89.9082,2.4636e-05,2.01e-06,0.0,0 STARLINK-5276,1 55399U 23014J   23286.56941553  .00000201  00000-0  24636-4 0  9998,2 55399  69.9991 118.4260 0003001 270.1733  89.9082 14.98330517 40523,6950.191,96.107,574.142,569.971,0.0
55399.0,STARLINK-5276,PAYLOAD,2023-10-13 21:40:37,14.98332445,0.0002995,69.999,117.5843,270.2488,89.8328,3.7496e-05,3.54e-06,0.0,0 STARLINK-5276,1 55399U 23014J   23286.90321348  .00000354  00000-0  37496-4 0  9997,2 55399  69.9990 117.5843 0002995 270.2488  89.8328 14.98332445 40577,6950.185,96.107,574.132,569.969,0.0
55399.0,STARLINK-5276,PAYLOAD,2023-10-13 23:16:45,14.98332966,0.0002992,69.9991,117.416,270.2711,89.8105,4.2373e-05,4.13e-06,0.0,0 STARLINK-5276,1 55399U 23014J   23286.96997287  .00000413  00000-0  42373-4 0  9990,2 55399  69.9991 117.4160 0002992 270.2711  89.8105 14.98332966 39642,6950.184,96.107,574.128,569.969,0.0
55399.0,STARLINK-5276,PAYLOAD,2023-10-14 13:41:58,14.98332091,0.000294,69.9991,115.9012,270.1496,89.9327,-3.8135e-05,-5.48e-06,0.0,0 STARLINK-5276,1 55399U 23014J   23287.57081491 -.00000548  00000-0 -38135-4 0  9991,2 55399  69.9991 115.9012 0002940 270.1496  89.9327 14.98332091 40674,6950.186,96.107,574.095,570.008,0.0
55399.0,STARLINK-5276,PAYLOAD,2023-10-14 21:42:38,14.98330964,0.0002939,69.9991,115.0597,269.3641,90.7181,-3.8725e-05,-5.55e-06,0.0,0 STARLINK-5276,1 55399U 23014J   23287.90461510 -.00000555  00000-0 -38725-4 0  9995,2 55399  69.9991 115.0597 0002939 269.3641  90.7181 14.98330964 40724,6950.19,96.107,574.098,570.012,0.0
55399.0,STARLINK-5276,PAYLOAD,2023-10-14 23:18:46,14.98331102,0.0002939,69.9991,114.8913,269.4225,90.6597,-3.6483e-05,-5.28e-06,0.0,0 STARLINK-5276,1 55399U 23014J   23287.97137488 -.00000528  00000-0 -36483-4 0  9995,2 55399  69.9991 114.8913 0002939 269.4225  90.6597 14.98331102 39792,6950.189,96.107,574.097,570.012,0.0
55399.0,STARLINK-5276,PAYLOAD,2023-10-15 13:43:59,14.98332333,0.0002977,69.9989,113.3762,269.5711,90.5106,-1.1334e-05,-2.28e-06,0.0,0 STARLINK-5276,1 55399U 23014J   23288.57221286 -.00000228  00000-0 -11334-4 0  9997,2 55399  69.9989 113.3762 0002977 269.5711  90.5106 14.98332333 40826,6950.186,96.107,574.12,569.982,0.0
55399.0,STARLINK-5276,PAYLOAD,2023-10-15 21:44:39,14.98331045,0.0003002,69.999,112.5345,269.4208,90.6607,-2.4202e-05,-3.82e-06,0.0,0 STARLINK-5276,1 55399U 23014J   23288.90601354 -.00000382  00000-0 -24202-4 0  9991,2 55399  69.9990 112.5345 0003002 269.4208  90.6607 14.98331045 40877,6950.19,96.107,574.141,569.968,0.0
55399.0,STARLINK-5276,PAYLOAD,2023-10-15 23:20:47,14.9833127,0.0003,69.999,112.3662,269.3772,90.7043,-2.1067e-05,-3.44e-06,0.0,0 STARLINK-5276,1 55399U 23014J   23288.97277325 -.00000344  00000-0 -21067-4 0  9999,2 55399  69.9990 112.3662 0003000 269.3772  90.7043 14.98331270 39941,6950.189,96.107,574.139,569.969,0.0
55399.0,STARLINK-5276,PAYLOAD,2023-10-16 13:46:00,14.98327569,0.0003057,69.9989,110.8511,270.1182,89.9627,1.052e-05,3.2e-07,0.0,0 STARLINK-5276,1 55399U 23014J   23289.57361447  .00000032  00000-0  10520-4 0  9999,2 55399  69.9989 110.8511 0003057 270.1182  89.9627 14.98327569 40971,6950.2,96.107,574.19,569.941,0.0
55399.0,STARLINK-5276,PAYLOAD,2023-10-16 21:46:40,14.98329351,0.0003079,69.999,110.0093,270.0976,89.983,2.2656e-06,-6.6e-07,0.0,0 STARLINK-5276,1 55399U 23014J   23289.90741369 -.00000066  00000-0  22656-5 0  9993,2 55399  69.9990 110.0093 0003079 270.0976  89.9830 14.98329351 41028,6950.195,96.107,574.2,569.92,0.0
55399.0,STARLINK-5276,PAYLOAD,2023-10-17 12:11:53,14.9832892,0.0003078,69.999,108.4944,270.1649,89.9157,-5.3483e-06,-1.57e-06,0.0,0 STARLINK-5276,1 55399U 23014J   23290.50825434 -.00000157  00000-0 -53483-5 0  9991,2 55399  69.9990 108.4944 0003078 270.1649  89.9157 14.98328920 41114,6950.196,96.107,574.201,569.922,0.0
55399.0,STARLINK-5276,PAYLOAD,2023-10-17 18:36:25,14.98332048,0.0001957,69.9991,107.821,263.6871,96.4065,1.4318e-05,7.8e-07,0.0,0 STARLINK-5276,1 55399U 23014J   23290.77529212  .00000078  00000-0  14318-4 0  9998,2 55399  69.9991 107.8210 0001957 263.6871  96.4065 14.98332048 40219,6950.187,96.107,573.412,570.691,0.0
55399.0,STARLINK-5276,PAYLOAD,2023-10-18 12:13:53,14.98332234,0.0002709,69.9986,105.9676,270.1821,89.9028,2.7573e-05,2.36e-06,0.0,0 STARLINK-5276,1 55399U 23014J   23291.50965105  .00000236  00000-0  27573-4 0  9998,2 55399  69.9986 105.9676 0002709 270.1821  89.9028 14.98332234 41261,6950.186,96.107,573.934,570.168,0.0
55399.0,STARLINK-5276,PAYLOAD,2023-10-19 12:15:54,14.98299792,0.0002147,69.9977,103.4418,251.1314,108.9612,0.00073216,8.647e-05,0.0,0 STARLINK-5276,1 55399U 23014J   23292.51105258  .00008647  00000-0  73216-3 0  9993,2 55399  69.9977 103.4418 0002147 251.1314 108.9612 14.98299792 40474,6950.286,96.109,573.644,570.659,0.0
55399.0,STARLINK-5276,PAYLOAD,2023-10-20 12:17:56,14.98328931,0.0002809,69.9996,100.9192,271.9205,88.1632,-7.3309e-05,-9.68e-06,0.0,0 STARLINK-5276,1 55399U 23014J   23293.51245402 -.00000968  00000-0 -73309-4 0  9994,2 55399  69.9996 100.9192 0002809 271.9205  88.1632 14.98328931 40626,6950.196,96.107,574.014,570.109,0.0
55399.0,STARLINK-5276,PAYLOAD,2023-10-20 20:18:36,14.98326113,0.0002786,69.9999,100.0783,269.5412,90.5428,-6.0743e-05,-8.18e-06,0.0,0 STARLINK-5276,1 55399U 23014J   23293.84625562 -.00000818  00000-0 -60743-4 0  9991,2 55399  69.9999 100.0783 0002786 269.5412  90.5428 14.98326113 41613,6950.205,96.107,574.006,570.134,0.0
55399.0,STARLINK-5276,PAYLOAD,2023-10-21 12:19:56,14.98331916,0.0002862,70.001,98.3959,265.7769,94.3063,-2.886e-06,-1.27e-06,0.0,0 STARLINK-5276,1 55399U 23014J   23294.51384974 -.00000127  00000-0 -28860-5 0  9993,2 55399  70.0010  98.3959 0002862 265.7769  94.3063 14.98331916 40772,6950.187,96.107,574.041,570.063,0.0
55399.0,STARLINK-5276,PAYLOAD,2023-10-21 21:56:44,14.98334768,0.0002823,69.9996,97.3848,268.8408,91.2428,2.6021e-05,2.18e-06,0.0,0 STARLINK-5276,1 55399U 23014J   23294.91440646  .00000218  00000-0  26021-4 0  9991,2 55399  69.9996  97.3848 0002823 268.8408  91.2428 14.98334768 41779,6950.178,96.107,574.005,570.081,0.0
55399.0,STARLINK-5276,PAYLOAD,2023-10-22 12:21:57,14.98323492,0.0002825,69.9991,95.8685,266.9174,93.1662,7.039e-06,-9e-08,0.0,0 STARLINK-5276,1 55399U 23014J   23295.51525445 -.00000009  00000-0  70390-5 0  9997,2 55399  69.9991  95.8685 0002825 266.9174  93.1662 14.98323492 40926,6950.213,96.107,574.041,570.115,0.0
55399.0,STARLINK-5276,PAYLOAD,2023-10-22 13:58:06,14.98323589,0.0002829,69.999,95.7002,266.902,93.1815,7.5521e-06,-3e-08,0.0,0 STARLINK-5276,1 55399U 23014J   23295.58201457 -.00000003  00000-0  75521-5 0  9993,2 55399  69.9990  95.7002 0002829 266.9020  93.1815 14.98323589 41873,6950.213,96.107,574.044,570.112,0.0
55399.0,STARLINK-5276,PAYLOAD,2023-10-22 20:22:38,14.98323284,0.0002839,69.9991,95.0266,266.4563,93.6272,5.7727e-07,-8.6e-07,0.0,0 STARLINK-5276,1 55399U 23014J   23295.84905584 -.00000086  00000-0  57727-6 0  9994,2 55399  69.9991  95.0266 0002839 266.4563  93.6272 14.98323284 41916,6950.214,96.107,574.052,570.105,0.0
55399.0,STARLINK-5276,PAYLOAD,2023-10-23 12:23:58,14.98334345,0.0002834,69.9993,93.3432,266.4482,93.6353,1.2301e-06,-7.8e-07,0.0,0 STARLINK-5276,1 55399U 23014J   23296.51664934 -.00000078  00000-0  12301-5 0  9999,2 55399  69.9993  93.3432 0002834 266.4482  93.6353 14.98334345 41076,6950.179,96.107,574.014,570.075,0.0
55399.0,STARLINK-5276,PAYLOAD,2023-10-23 20:24:38,14.9833443,0.0002839,69.9994,92.5016,266.5877,93.4957,5.1165e-06,-3.2e-07,0.0,0 STARLINK-5276,1 55399U 23014J   23296.85044839 -.00000032  00000-0  51165-5 0  9993,2 55399  69.9994  92.5016 0002839 266.5877  93.4957 14.98334430 42063,6950.179,96.107,574.017,570.071,0.0
55399.0,STARLINK-5276,PAYLOAD,2023-10-24 12:25:59,14.98328081,0.0002942,69.9991,90.8187,267.0029,93.0793,4.5649e-05,4.52e-06,0.0,0 STARLINK-5276,1 55399U 23014J   23297.51805052  .00000452  00000-0  45649-4 0  9993,2 55399  69.9991  90.8187 0002942 267.0029  93.0793 14.98328081 42160,6950.199,96.107,574.109,570.019,0.0
